OBJECT_NAME,OBJECT_ID,EPOCH,MEAN_MOTION,ECCENTRICITY,INCLINATION,RA_OF_ASC_NODE,ARG_OF_PERICENTER,MEAN_ANOMALY,EPHEMERIS_TYPE,CLASSIFICATION_TYPE,NORAD_CAT_ID,ELEMENT_SET_NO,REV_AT_EPOCH,BSTAR,MEAN_MOTION_DOT,MEAN_MOTION_DDOT
GSAT0225 (GALILEO 29),2024-079A,2026-07-15T20:24:57.238272,1.70473737,.0000578,55.1362,100.2788,334.6086,202.4924,0,U,59598,999,1380,0,-.27E-6,0
GSAT0227 (GALILEO 30),2024-079C,2026-07-13T23:39:34.866144,1.70473814,.00028453,55.1303,100.3294,67.2681,292.7822,0,U,59600,999,1382,0,-.3E-6,0
GSAT0232 (GALILEO 32),2024-167A,2026-07-16T14:45:01.777824,1.70474030,.0006489,55.1789,220.5058,233.0865,155.9296,0,U,61182,999,1138,0,.49E-6,0
GSAT0226 (GALILEO 31),2024-167B,2026-07-15T12:58:33.996864,1.70474006,.0003207,55.1780,220.5424,236.6774,304.5756,0,U,61183,999,1133,0,.56E-6,0
BEIDOU-3 M25 (C47),2024-168B,2026-07-16T10:53:14.043264,1.86229932,.0003342,54.4452,301.2245,291.8332,67.7736,0,U,61186,999,1232,0,-.76E-6,0
BEIDOU-3 M27 (C49),2024-168C,2026-07-16T18:51:58.374720,1.86230014,.0000893,54.4403,301.1956,46.3812,311.1554,0,U,61187,999,980,0,-.78E-6,0
GPS BIII-7  (PRN 01),2024-242A,2026-07-16T17:41:01.265280,2.00572060,.0017924,54.8352,332.9832,4.2762,341.9272,0,U,62339,999,1184,0,-.101E-5,0
QZS-6 (QZSS/PRN 200),2025-023A,2026-07-16T18:36:20.267712,1.00274936,.0001794,0.0092,17.2493,96.5474,190.3250,0,U,62876,999,524,0,-.244E-5,0
COSMOS 2584 (704K),2025-042A,2026-07-13T21:18:41.244768,2.13103784,.000546,65.0996,71.8945,213.8001,146.2394,0,U,63130,999,1061,0,-.1E-6,0
GPS BIII-8  (PRN 21),2025-116A,2026-07-16T00:06:34.149024,2.00573669,.00084315,55.2543,29.9713,339.3849,21.2010,0,U,64202,999,845,0,-.76E-6,0
COSMOS 2596 (708K),2025-206B,2026-07-13T08:02:05.138880,2.13100618,.00111267,64.6178,314.0753,307.7533,103.9433,0,U,65590,999,647,0,-.64E-6,0
GSAT0233 (GALILEO 33),2025-302A,2026-07-16T13:25:06.964032,1.70473838,.0000972,54.3515,101.2938,153.0482,29.7567,0,U,67160,999,362,0,-.28E-6,0
GSAT0234 (GALILEO 34),2025-302C,2026-07-16T20:22:49.584000,1.70473930,.0002216,54.3544,101.2845,322.1435,218.7937,0,U,67162,999,368,0,-.28E-6,0
GPS BIII-9  (PRN 20),2026-017A,2026-07-16T02:44:02.809824,2.00570476,.0021564,55.1067,87.5942,260.2085,99.6021,0,U,67588,999,43219,0,-.25E-6,0
GPS BIII-10 (PRN 13),2026-087A,2026-07-15T11:14:09.755808,2.00572628,.00204615,54.9617,206.6692,106.0864,353.1427,0,U,68791,999,140,0,.49E-6,0
